GLOBALSTAR M063         
1 26081U 00008A   25276.21334106 -.00000083  00000+0 -88012-5 0  9993
2 26081  51.9943 187.0685 0004388 153.6875  13.7068 11.86175176170391
GLOBALSTAR M062         
1 26082U 00008B   25276.63160539  .00000001  00000+0  71260-3 0  9990
2 26082  51.9826 136.8787 0007159 350.9945  42.5649 12.43473443510111
GLOBALSTAR M060         
1 26083U 00008C   25276.57610437 -.00000038  00000+0  53114-3 0  9990
2 26083  51.9997 112.3821 0003244   3.4954  34.2843 12.17667710165573
GLOBALSTAR M064         
1 26084U 00008D   25276.46357129 -.00000041  00000+0  59551-3 0  9990
2 26084  52.0028 283.9637 0001318 270.1622  89.9060 11.88537552179970
GLOBALSTAR M065         
1 31571U 07020A   25276.67494023 -.00000122  00000+0 -10264-3 0  9995
2 31571  51.9886 256.0635 0009852 186.9630 344.6145 12.62009739847106
GLOBALSTAR M069         
1 31573U 07020C   25276.35660519 -.00000034  00000+0  54392-3 0  9998
2 31573  52.0021 259.0535 0001943 349.4567 161.3349 12.23461743847363
GLOBALSTAR M072         
1 31574U 07020D   25276.45974747 -.00000073  00000+0  14886-3 0  9998
2 31574  51.9935  63.7188 0001567 144.5390 253.3070 11.91652159844378
GLOBALSTAR M071         
1 31576U 07020F   25276.53783486  .00000030  00000+0  11909-2 0  9991
2 31576  52.0057 287.2158 0000807 340.2793 194.8012 12.18259254508141
